OOV-CUBE (TUBSAT-30)    
1 60240U 24128F   26087.53237420  .00002300  00000+0  18378-3 0  9992
2 60240  61.9947 146.7290 0052931 116.2323 244.4223 15.02370641 93997
